[{"OBJECT_NAME":"DROID.002","OBJECT_ID":"2025-052P","EPOCH":"2026-03-09T23:25:00.743520","MEAN_MOTION":15.22033904,"ECCENTRICITY":0.00055943,"INCLINATION":97.4049,"RA_OF_ASC_NODE":323.345,"ARG_OF_PERICENTER":112.4531,"MEAN_ANOMALY":247.7298,"EPHEMERIS_TYPE":0,"CLASSIFICATION_TYPE":"U","NORAD_CAT_ID":63223,"ELEMENT_SET_NO":999,"REV_AT_EPOCH":5477,"BSTAR":0.00036874909,"MEAN_MOTION_DOT":8.365e-5,"MEAN_MOTION_DDOT":0},{"OBJECT_NAME":"SITRO-AIS-64","OBJECT_ID":"2025-313AW","EPOCH":"2026-03-09T22:35:09.372480","MEAN_MOTION":15.230077,"ECCENTRICITY":0.00087165,"INCLINATION":97.4006,"RA_OF_ASC_NODE":145.3433,"ARG_OF_PERICENTER":353.6224,"MEAN_ANOMALY":6.49,"EPHEMERIS_TYPE":0,"CLASSIFICATION_TYPE":"U","NORAD_CAT_ID":67292,"ELEMENT_SET_NO":999,"REV_AT_EPOCH":1086,"BSTAR":0.00054511054,"MEAN_MOTION_DOT":0.00012775,"MEAN_MOTION_DDOT":0}]
